[{"OBJECT_NAME":"PROTOMETHEE","OBJECT_ID":"2023-174BT","EPOCH":"2026-03-09T23:28:08.029344","MEAN_MOTION":15.30202663,"ECCENTRICITY":0.00088339,"INCLINATION":97.3826,"RA_OF_ASC_NODE":147.9552,"ARG_OF_PERICENTER":148.5993,"MEAN_ANOMALY":211.5776,"EPHEMERIS_TYPE":0,"CLASSIFICATION_TYPE":"U","NORAD_CAT_ID":58321,"ELEMENT_SET_NO":999,"REV_AT_EPOCH":12979,"BSTAR":0.00015715731,"MEAN_MOTION_DOT":4.52e-5,"MEAN_MOTION_DDOT":0},{"OBJECT_NAME":"STARLINK-32248","OBJECT_ID":"2024-171V","EPOCH":"2026-03-09T22:30:46.406304","MEAN_MOTION":15.30202476,"ECCENTRICITY":8.746e-5,"INCLINATION":53.1588,"RA_OF_ASC_NODE":321.4901,"ARG_OF_PERICENTER":160.7344,"MEAN_ANOMALY":199.369,"EPHEMERIS_TYPE":0,"CLASSIFICATION_TYPE":"U","NORAD_CAT_ID":61219,"ELEMENT_SET_NO":999,"REV_AT_EPOCH":8331,"BSTAR":0.00019426748,"MEAN_MOTION_DOT":5.399e-5,"MEAN_MOTION_DDOT":0}]
